[{"OBJECT_NAME":"MESON-1","OBJECT_ID":"2024-043AK","EPOCH":"2026-03-09T21:36:16.481664","MEAN_MOTION":15.29893494,"ECCENTRICITY":0.00095452,"INCLINATION":97.5469,"RA_OF_ASC_NODE":205.2839,"ARG_OF_PERICENTER":227.1432,"MEAN_ANOMALY":132.9007,"EPHEMERIS_TYPE":0,"CLASSIFICATION_TYPE":"U","NORAD_CAT_ID":59131,"ELEMENT_SET_NO":999,"REV_AT_EPOCH":11189,"BSTAR":0.0002974823,"MEAN_MOTION_DOT":8.544e-5,"MEAN_MOTION_DDOT":0},{"OBJECT_NAME":"STARLINK-31481","OBJECT_ID":"2024-074H","EPOCH":"2026-03-09T03:04:40.663488","MEAN_MOTION":15.27577203,"ECCENTRICITY":0.00012118,"INCLINATION":43.004,"RA_OF_ASC_NODE":346.2485,"ARG_OF_PERICENTER":247.3805,"MEAN_ANOMALY":112.6919,"EPHEMERIS_TYPE":0,"CLASSIFICATION_TYPE":"U","NORAD_CAT_ID":59541,"ELEMENT_SET_NO":999,"REV_AT_EPOCH":10593,"BSTAR":-8.6249698e-5,"MEAN_MOTION_DOT":-2.634e-5,"MEAN_MOTION_DDOT":0}]
